CCSDS_OMM_VERS = 2.0
CREATION_DATE  = 
ORIGINATOR     = 

OBJECT_NAME    = ATLAS CENTAUR R/B
OBJECT_ID      = 1972-065B
CENTER_NAME    = EARTH
REF_FRAME      = TEME
TIME_SYSTEM    = UTC
MEAN_ELEMENT_THEORY = SGP/SGP4

EPOCH          = 2026-02-14T10:48:05.808672
MEAN_MOTION    = 14.77617452
ECCENTRICITY   = .00337299
INCLINATION    = 35.0014
RA_OF_ASC_NODE = 81.9368
ARG_OF_PERICENTER = 175.6847
MEAN_ANOMALY   = 184.4150

EPHEMERIS_TYPE = 0
CLASSIFICATION_TYPE = U
NORAD_CAT_ID   = 6155
ELEMENT_SET_NO = 999
REV_AT_EPOCH   = 83782
BSTAR          = .1939662E-3
MEAN_MOTION_DOT = .14E-4
MEAN_MOTION_DDOT = 0

CCSDS_OMM_VERS = 2.0
CREATION_DATE  = 
ORIGINATOR     = 

OBJECT_NAME    = SL-8 R/B
OBJECT_ID      = 1975-112B
CENTER_NAME    = EARTH
REF_FRAME      = TEME
TIME_SYSTEM    = UTC
MEAN_ELEMENT_THEORY = SGP/SGP4

EPOCH          = 2026-02-15T04:11:11.204736
MEAN_MOTION    = 14.38191616
ECCENTRICITY   = .00151474
INCLINATION    = 74.0591
RA_OF_ASC_NODE = 60.3320
ARG_OF_PERICENTER = 161.9453
MEAN_ANOMALY   = 198.2243

EPHEMERIS_TYPE = 0
CLASSIFICATION_TYPE = U
NORAD_CAT_ID   = 8459
ELEMENT_SET_NO = 999
REV_AT_EPOCH   = 62863
BSTAR          = .59949261E-4
MEAN_MOTION_DOT = .156E-5
MEAN_MOTION_DDOT = 0

CCSDS_OMM_VERS = 2.0
CREATION_DATE  = 
ORIGINATOR     = 

OBJECT_NAME    = SL-3 R/B
OBJECT_ID      = 1977-057B
CENTER_NAME    = EARTH
REF_FRAME      = TEME
TIME_SYSTEM    = UTC
MEAN_ELEMENT_THEORY = SGP/SGP4

EPOCH          = 2026-02-15T05:55:33.245184
MEAN_MOTION    = 15.44831339
ECCENTRICITY   = .00075264
INCLINATION    = 97.5733
RA_OF_ASC_NODE = 217.1960
ARG_OF_PERICENTER = 12.9130
MEAN_ANOMALY   = 347.2309

EPHEMERIS_TYPE = 0
CLASSIFICATION_TYPE = U
NORAD_CAT_ID   = 10114
ELEMENT_SET_NO = 999
REV_AT_EPOCH   = 66486
BSTAR          = .32904115E-3
MEAN_MOTION_DOT = .15357E-3
MEAN_MOTION_DDOT = 0

CCSDS_OMM_VERS = 2.0
CREATION_DATE  = 
ORIGINATOR     = 

OBJECT_NAME    = SEASAT 1
OBJECT_ID      = 1978-064A
CENTER_NAME    = EARTH
REF_FRAME      = TEME
TIME_SYSTEM    = UTC
MEAN_ELEMENT_THEORY = SGP/SGP4

EPOCH          = 2026-02-15T02:01:12.463392
MEAN_MOTION    = 14.46141693
ECCENTRICITY   = .00017179
INCLINATION    = 108.0159
RA_OF_ASC_NODE = 78.0601
ARG_OF_PERICENTER = 292.5793
MEAN_ANOMALY   = 67.5171

EPHEMERIS_TYPE = 0
CLASSIFICATION_TYPE = U
NORAD_CAT_ID   = 10967
ELEMENT_SET_NO = 999
REV_AT_EPOCH   = 50324
BSTAR          = .10203026E-3
MEAN_MOTION_DOT = .227E-5
MEAN_MOTION_DDOT = 0

CCSDS_OMM_VERS = 2.0
CREATION_DATE  = 
ORIGINATOR     = 

OBJECT_NAME    = SL-14 R/B
OBJECT_ID      = 1979-011B
CENTER_NAME    = EARTH
REF_FRAME      = TEME
TIME_SYSTEM    = UTC
MEAN_ELEMENT_THEORY = SGP/SGP4

EPOCH          = 2026-02-15T05:54:11.244672
MEAN_MOTION    = 14.91881372
ECCENTRICITY   = .00173173
INCLINATION    = 82.5242
RA_OF_ASC_NODE = 117.8680
ARG_OF_PERICENTER = 129.2865
MEAN_ANOMALY   = 230.9894

EPHEMERIS_TYPE = 0
CLASSIFICATION_TYPE = U
NORAD_CAT_ID   = 11267
ELEMENT_SET_NO = 999
REV_AT_EPOCH   = 52543
BSTAR          = .6998476E-4
MEAN_MOTION_DOT = .735E-5
MEAN_MOTION_DDOT = 0

CCSDS_OMM_VERS = 2.0
CREATION_DATE  = 
ORIGINATOR     = 

OBJECT_NAME    = SL-8 R/B
OBJECT_ID      = 1979-089B
CENTER_NAME    = EARTH
REF_FRAME      = TEME
TIME_SYSTEM    = UTC
MEAN_ELEMENT_THEORY = SGP/SGP4

EPOCH          = 2026-02-15T06:33:03.432096
MEAN_MOTION    = 14.42336900
ECCENTRICITY   = .00167702
INCLINATION    = 74.0694
RA_OF_ASC_NODE = 132.5397
ARG_OF_PERICENTER = 307.8472
MEAN_ANOMALY   = 52.1166

EPHEMERIS_TYPE = 0
CLASSIFICATION_TYPE = U
NORAD_CAT_ID   = 11574
ELEMENT_SET_NO = 999
REV_AT_EPOCH   = 43287
BSTAR          = .10014263E-3
MEAN_MOTION_DOT = .305E-5
MEAN_MOTION_DDOT = 0

CCSDS_OMM_VERS = 2.0
CREATION_DATE  = 
ORIGINATOR     = 

OBJECT_NAME    = SL-14 R/B
OBJECT_ID      = 1980-005B
CENTER_NAME    = EARTH
REF_FRAME      = TEME
TIME_SYSTEM    = UTC
MEAN_ELEMENT_THEORY = SGP/SGP4

EPOCH          = 2026-02-15T05:51:42.054336
MEAN_MOTION    = 14.90901730
ECCENTRICITY   = .00143044
INCLINATION    = 82.5174
RA_OF_ASC_NODE = 328.5216
ARG_OF_PERICENTER = 235.3682
MEAN_ANOMALY   = 124.6189

EPHEMERIS_TYPE = 0
CLASSIFICATION_TYPE = U
NORAD_CAT_ID   = 11672
ELEMENT_SET_NO = 999
REV_AT_EPOCH   = 47314
BSTAR          = .76759396E-4
MEAN_MOTION_DOT = .783E-5
MEAN_MOTION_DDOT = 0

CCSDS_OMM_VERS = 2.0
CREATION_DATE  = 
ORIGINATOR     = 

OBJECT_NAME    = SL-8 R/B
OBJECT_ID      = 1981-003B
CENTER_NAME    = EARTH
REF_FRAME      = TEME
TIME_SYSTEM    = UTC
MEAN_ELEMENT_THEORY = SGP/SGP4

EPOCH          = 2026-02-15T05:05:26.500128
MEAN_MOTION    = 15.10148641
ECCENTRICITY   = .02625891
INCLINATION    = 82.9402
RA_OF_ASC_NODE = 310.7936
ARG_OF_PERICENTER = 257.0188
MEAN_ANOMALY   = 100.1606

EPHEMERIS_TYPE = 0
CLASSIFICATION_TYPE = U
NORAD_CAT_ID   = 12139
ELEMENT_SET_NO = 999
REV_AT_EPOCH   = 31128
BSTAR          = .44587815E-3
MEAN_MOTION_DOT = .1689E-3
MEAN_MOTION_DDOT = 0

CCSDS_OMM_VERS = 2.0
CREATION_DATE  = 
ORIGINATOR     = 

OBJECT_NAME    = SL-3 R/B
OBJECT_ID      = 1981-046B
CENTER_NAME    = EARTH
REF_FRAME      = TEME
TIME_SYSTEM    = UTC
MEAN_ELEMENT_THEORY = SGP/SGP4

EPOCH          = 2026-02-15T03:10:43.497696
MEAN_MOTION    = 15.41356862
ECCENTRICITY   = .00208062
INCLINATION    = 81.2344
RA_OF_ASC_NODE = 316.8128
ARG_OF_PERICENTER = 96.5505
MEAN_ANOMALY   = 263.8106

EPHEMERIS_TYPE = 0
CLASSIFICATION_TYPE = U
NORAD_CAT_ID   = 12465
ELEMENT_SET_NO = 999
REV_AT_EPOCH   = 43495
BSTAR          = .28761764E-3
MEAN_MOTION_DOT = .12126E-3
MEAN_MOTION_DDOT = 0

CCSDS_OMM_VERS = 2.0
CREATION_DATE  = 
ORIGINATOR     = 

OBJECT_NAME    = SL-3 R/B
OBJECT_ID      = 1981-103B
CENTER_NAME    = EARTH
REF_FRAME      = TEME
TIME_SYSTEM    = UTC
MEAN_ELEMENT_THEORY = SGP/SGP4

EPOCH          = 2026-02-15T05:03:36.179424
MEAN_MOTION    = 15.21097920
ECCENTRICITY   = .00133476
INCLINATION    = 81.1556
RA_OF_ASC_NODE = 239.8001
ARG_OF_PERICENTER = 5.6323
MEAN_ANOMALY   = 354.5056

EPHEMERIS_TYPE = 0
CLASSIFICATION_TYPE = U
NORAD_CAT_ID   = 12904
ELEMENT_SET_NO = 999
REV_AT_EPOCH   = 96981
BSTAR          = .31626346E-3
MEAN_MOTION_DOT = .7073E-4
MEAN_MOTION_DDOT = 0

CCSDS_OMM_VERS = 2.0
CREATION_DATE  = 
ORIGINATOR     = 

OBJECT_NAME    = SL-3 R/B
OBJECT_ID      = 1982-013B
CENTER_NAME    = EARTH
REF_FRAME      = TEME
TIME_SYSTEM    = UTC
MEAN_ELEMENT_THEORY = SGP/SGP4

EPOCH          = 2026-02-15T05:29:04.988544
MEAN_MOTION    = 15.21762817
ECCENTRICITY   = .00217343
INCLINATION    = 81.1748
RA_OF_ASC_NODE = 187.0861
ARG_OF_PERICENTER = 255.0942
MEAN_ANOMALY   = 104.7883

EPHEMERIS_TYPE = 0
CLASSIFICATION_TYPE = U
NORAD_CAT_ID   = 13068
ELEMENT_SET_NO = 999
REV_AT_EPOCH   = 40093
BSTAR          = .2488171E-3
MEAN_MOTION_DOT = .5702E-4
MEAN_MOTION_DDOT = 0

CCSDS_OMM_VERS = 2.0
CREATION_DATE  = 
ORIGINATOR     = 

OBJECT_NAME    = SL-3 R/B
OBJECT_ID      = 1982-039B
CENTER_NAME    = EARTH
REF_FRAME      = TEME
TIME_SYSTEM    = UTC
MEAN_ELEMENT_THEORY = SGP/SGP4

EPOCH          = 2026-02-15T06:13:21.690912
MEAN_MOTION    = 15.09952968
ECCENTRICITY   = .00300363
INCLINATION    = 81.1596
RA_OF_ASC_NODE = 241.8180
ARG_OF_PERICENTER = 37.8176
MEAN_ANOMALY   = 322.5151

EPHEMERIS_TYPE = 0
CLASSIFICATION_TYPE = U
NORAD_CAT_ID   = 13154
ELEMENT_SET_NO = 999
REV_AT_EPOCH   = 37825
BSTAR          = .17806991E-3
MEAN_MOTION_DOT = .2943E-4
MEAN_MOTION_DDOT = 0

