ATLAS CENTAUR R/B       
1 06155U 72065B   26045.45006723  .00001400  00000+0  19397-3 0  9997
2 06155  35.0014  81.9368 0033729 175.6847 184.4150 14.77617452837824
SL-8 R/B                
1 08459U 75112B   26046.17443524  .00000156  00000+0  59949-4 0  9991
2 08459  74.0591  60.3320 0015147 161.9453 198.2243 14.38191616628639
SL-3 R/B                
1 10114U 77057B   26046.24691256  .00015357  00000+0  32904-3 0  9997
2 10114  97.5733 217.1960 0007526  12.9130 347.2309 15.44831339664864
SEASAT 1                
1 10967U 78064A   26046.08417203  .00000227  00000+0  10203-3 0  9990
2 10967 108.0159  78.0601 0001717 292.5793  67.5171 14.46141693503244
SL-14 R/B               
1 11267U 79011B   26046.24596348  .00000735  00000+0  69985-4 0  9999
2 11267  82.5242 117.8680 0017317 129.2865 230.9894 14.91881372525433
SL-8 R/B                
1 11574U 79089B   26046.27295639  .00000305  00000+0  10014-3 0  9998
2 11574  74.0694 132.5397 0016770 307.8472  52.1166 14.42336900432879
SL-14 R/B               
1 11672U 80005B   26046.24423674  .00000783  00000+0  76759-4 0  9995
2 11672  82.5174 328.5216 0014304 235.3682 124.6189 14.90901730473148
SL-8 R/B                
1 12139U 81003B   26046.21211227  .00016890  00000+0  44588-3 0  9999
2 12139  82.9402 310.7936 0262589 257.0188 100.1606 15.10148641311285
SL-3 R/B                
1 12465U 81046B   26046.13244789  .00012126  00000+0  28762-3 0  9992
2 12465  81.2344 316.8128 0020806  96.5505 263.8106 15.41356862434959
SL-3 R/B                
1 12904U 81103B   26046.21083541  .00007073  00000+0  31626-3 0  9998
2 12904  81.1556 239.8001 0013347   5.6323 354.5056 15.21097920969811
SL-3 R/B                
1 13068U 82013B   26046.22852996  .00005702  00000+0  24882-3 0  9993
2 13068  81.1748 187.0861 0021734 255.0942 104.7883 15.21762817400931
SL-3 R/B                
1 13154U 82039B   26046.25927883  .00002943  00000+0  17807-3 0  9991
2 13154  81.1596 241.8180 0030036  37.8176 322.5151 15.09952968378252
